[{"OBJECT_NAME":"STARLINK-1184","OBJECT_ID":"2020-006BG","EPOCH":"2026-03-09T17:34:46.446528","MEAN_MOTION":15.10217387,"ECCENTRICITY":0.00058117,"INCLINATION":53.0529,"RA_OF_ASC_NODE":245.2266,"ARG_OF_PERICENTER":133.9139,"MEAN_ANOMALY":226.2332,"EPHEMERIS_TYPE":0,"CLASSIFICATION_TYPE":"U","NORAD_CAT_ID":45098,"ELEMENT_SET_NO":999,"REV_AT_EPOCH":33704,"BSTAR":0.0018857245,"MEAN_MOTION_DOT":0.00031026,"MEAN_MOTION_DDOT":0},{"OBJECT_NAME":"TIANQI-14","OBJECT_ID":"2021-055E","EPOCH":"2026-03-09T21:13:53.334048","MEAN_MOTION":15.12385268,"ECCENTRICITY":0.00041067,"INCLINATION":35.0005,"RA_OF_ASC_NODE":333.4675,"ARG_OF_PERICENTER":169.8812,"MEAN_ANOMALY":190.1982,"EPHEMERIS_TYPE":0,"CLASSIFICATION_TYPE":"U","NORAD_CAT_ID":48864,"ELEMENT_SET_NO":999,"REV_AT_EPOCH":25867,"BSTAR":0.00046306259,"MEAN_MOTION_DOT":8.192e-5,"MEAN_MOTION_DDOT":0}]
